      2.10          N: GNSS NAV DATA                        RINEX VERSION / TYPE
fic2rin                                 10/09/2018 00:18:59 PGM / RUN BY / DATE
                                                            END OF HEADER
 9 18 10  8 15 59 44.0 5.017993971705e-04-2.501110429876e-12 0.000000000000e+00
    2.000000000000e+01 4.759375000000e+01 4.383039714054e-09-2.249895372030e-01
    2.408400177956e-06 1.210901769809e-03 1.338869333267e-05 5.153821319580e+03
    1.439840000000e+05-6.705522537231e-08-3.052071030438e+00 3.725290298462e-08
    9.531575553638e-01 1.165937500000e+02 1.684925332155e+00-7.937116327040e-09
    7.928901699153e-11 1.000000000000e+00 2.022000000000e+03 0.000000000000e+00
    2.400000000000e+00 0.000000000000e+00 9.313225746155e-10 2.000000000000e+01
    1.368060000000e+05 4.000000000000e+00
 1 18 10  8 16  0  0.0-9.785173460841e-05-4.888534022029e-12 0.000000000000e+00
    5.000000000000e+00 5.543750000000e+01 4.796271212519e-09-2.901920607841e+00
    2.743676304817e-06 8.123753708787e-03 3.725290298462e-06 5.153656881332e+03
    1.440000000000e+05 1.117587089539e-08 1.155044731221e+00-1.695007085800e-07
    9.724538588351e-01 3.150312500000e+02 6.993023315833e-01-8.273201754918e-09
    3.993023468312e-10 1.000000000000e+00 2.022000000000e+03 0.000000000000e+00
    2.400000000000e+00 0.000000000000e+00 5.587935447693e-09 5.000000000000e+00
    1.368060000000e+05 4.000000000000e+00
 2 18 10  8 16  0  0.0-2.425350248814e-05-1.080024958355e-11 0.000000000000e+00
    9.200000000000e+01 7.078125000000e+01 5.258076162835e-09-2.579528148959e+00
    3.635883331299e-06 1.822477357928e-02 3.751367330551e-06 5.153563465118e+03
    1.440000000000e+05 2.887099981308e-07 1.091102558378e+00 1.676380634308e-08
    9.515843142434e-01 2.987812500000e+02-1.825111496408e+00-8.344990459491e-09
    6.025250975888e-10 1.000000000000e+00 2.022000000000e+03 0.000000000000e+00
    2.400000000000e+00 0.000000000000e+00-2.048909664154e-08 9.200000000000e+01
    1.368060000000e+05 4.000000000000e+00
 8 18 10  8 16  0  0.0-1.178742386401e-04-1.364242052659e-12 0.000000000000e+00
    2.300000000000e+01 2.728125000000e+01 4.016953036503e-09-3.190742066529e-01
    1.320615410805e-06 3.609384293668e-03 1.327134668827e-05 5.153641071320e+03
    1.440000000000e+05 5.587935447693e-09 8.981642894049e-02-9.685754776001e-08
    9.701272032006e-01 1.272812500000e+02-4.132889470750e-01-7.792110286956e-09
    2.682254583813e-10 1.000000000000e+00 2.022000000000e+03 0.000000000000e+00
    2.400000000000e+00 0.000000000000e+00 5.122274160385e-09 2.300000000000e+01
    1.368060000000e+05 4.000000000000e+00
 5 18 10  8 16  0  0.0-1.166015863419e-06 3.410605131648e-13 0.000000000000e+00
    2.500000000000e+01-9.428125000000e+01 5.193787770679e-09 2.607765583904e-03
   -4.813075065613e-06 5.675499676727e-03 6.832182407379e-06 5.153791648865e+03
    1.440000000000e+05 4.284083843231e-08 2.174651510416e+00 6.332993507385e-08
    9.484430648606e-01 2.381562500000e+02 6.983397417276e-01-8.583214668200e-09
   -6.682421206809e-10 1.000000000000e+00 2.022000000000e+03 0.000000000000e+00
    2.400000000000e+00 0.000000000000e+00-1.117587089539e-08 2.500000000000e+01
    1.368060000000e+05 4.000000000000e+00
 3 18 10  8 16  0  0.0 1.464178785682e-04 4.661160346586e-12 0.000000000000e+00
    7.500000000000e+01-8.621875000000e+01 4.718053668730e-09 2.306291713941e+00
   -4.567205905914e-06 1.798945595510e-03 7.677823305130e-06 5.153665004730e+03
    1.440000000000e+05-8.009374141693e-08 2.198306266703e+00 5.587935447693e-09
    9.615806733976e-01 2.304687500000e+02 6.642982480599e-01-8.193555580192e-09
   -5.893102614235e-10 1.000000000000e+00 2.022000000000e+03 0.000000000000e+00
    2.400000000000e+00 0.000000000000e+00 1.862645149231e-09 7.500000000000e+01
    1.368060000000e+05 4.000000000000e+00
14 18 10  8 16  0  0.0-9.685428813100e-05 2.273736754432e-13 0.000000000000e+00
    2.800000000000e+01 5.062500000000e+01 4.272677974188e-09-9.728712688619e-01
    2.615153789520e-06 1.002145907842e-02 1.253187656403e-05 5.153644792557e+03
    1.440000000000e+05-1.862645149231e-08-2.961203232995e+00 2.142041921616e-07
    9.613236123585e-01 1.418437500000e+02-1.942542103064e+00-8.021405552310e-09
    8.928943354902e-11 1.000000000000e+00 2.022000000000e+03 0.000000000000e+00
    2.400000000000e+00 0.000000000000e+00-9.778887033463e-09 2.800000000000e+01
    1.368060000000e+05 4.000000000000e+00
13 18 10  8 16  0  0.0-8.751498535275e-05 9.094947017729e-13 0.000000000000e+00
    1.700000000000e+01 6.225000000000e+01 4.045882812973e-09-1.889345587239e+00
    3.142282366753e-06 3.468136303127e-03 1.364760100842e-05 5.153675559998e+03
    1.440000000000e+05 1.192092895508e-07-2.918407862830e+00 5.960464477539e-08
    9.687533358706e-01 1.208750000000e+02 1.443153985796e+00-7.752108620726e-09
    1.889364413897e-10 1.000000000000e+00 2.022000000000e+03 0.000000000000e+00
    2.400000000000e+00 0.000000000000e+00-1.117587089539e-08 1.700000000000e+01
    1.368060000000e+05 4.000000000000e+00
 7 18 10  8 16  0  0.0 1.103486865759e-04-6.707523425575e-12 0.000000000000e+00
    2.100000000000e+01 5.787500000000e+01 4.943420199008e-09 2.743011838070e+00
    2.820044755936e-06 1.208949531429e-02 3.086403012276e-06 5.153633327484e+03
    1.440000000000e+05-1.490116119385e-08-1.974993439890e+00-1.750886440277e-07
    9.571529353188e-01 3.182812500000e+02-2.485514881614e+00-8.378563286506e-09
    3.025126008641e-10 1.000000000000e+00 2.022000000000e+03 0.000000000000e+00
    2.400000000000e+00 0.000000000000e+00-1.117587089539e-08 2.100000000000e+01
    1.368060000000e+05 4.000000000000e+00
16 18 10  8 16  0  0.0 5.232635885477e-06-1.932676241267e-12 0.000000000000e+00
    1.600000000000e+01-8.887500000000e+01 3.941235596854e-09 2.609523323864e-01
   -4.565343260765e-06 1.004438311793e-02 8.013099431992e-06 5.153709884644e+03
    1.440000000000e+05 3.725290298462e-08-8.601168052374e-01 1.508742570877e-07
    9.856382778248e-01 2.382187500000e+02 5.210240612349e-01-8.045692278235e-09
   -4.835915721015e-10 1.000000000000e+00 2.022000000000e+03 0.000000000000e+00
    2.400000000000e+00 0.000000000000e+00-1.071020960808e-08 1.600000000000e+01
    1.368060000000e+05 4.000000000000e+00
30 18 10  8 16  0  0.0 1.309206709266e-05-5.456968210638e-12 0.000000000000e+00
    1.700000000000e+01 5.340625000000e+01 5.389510209019e-09 2.718313121498e+00
    2.697110176086e-06 3.601928008720e-03 2.926215529442e-06 5.153673040390e+03
    1.440000000000e+05-2.980232238770e-08-1.943371346474e+00-3.352761268616e-08
    9.426846243127e-01 3.146250000000e+02-2.970542431793e+00-8.737149651639e-09
    2.403671551140e-10 1.000000000000e+00 2.022000000000e+03 0.000000000000e+00
    2.400000000000e+00 0.000000000000e+00 3.725290298462e-09 1.700000000000e+01
    1.368060000000e+05 4.000000000000e+00
29 18 10  8 16  0  0.0 3.610388375819e-04-7.503331289627e-12 0.000000000000e+00
    1.500000000000e+01 2.890625000000e+01 3.706940123221e-09-1.641687429271e-01
    1.261010766029e-06 7.389357779175e-04 1.367367804050e-05 5.153625389099e+03
    1.440000000000e+05 1.676380634308e-08 1.649035681412e-01 7.450580596924e-09
    9.850497853803e-01 1.301250000000e+02 1.653959560843e+00-7.589601851667e-09
    3.735869899691e-10 1.000000000000e+00 2.022000000000e+03 0.000000000000e+00
    2.400000000000e+00 0.000000000000e+00-1.024454832077e-08 1.500000000000e+01
    1.368060000000e+05 4.000000000000e+00
24 18 10  8 16  0  0.0-5.646795034409e-05-5.684341886081e-13 0.000000000000e+00
    3.500000000000e+01 7.334375000000e+01 5.283434361963e-09-2.520053110579e+00
    3.816559910774e-06 7.376642082818e-03 3.978610038757e-06 5.153620388031e+03
    1.440000000000e+05-2.421438694000e-08-2.037060090312e+00-9.126961231232e-08
    9.403031736186e-01 2.922187500000e+02 5.356167261294e-01-8.613573075607e-09
    4.503759028213e-10 1.000000000000e+00 2.022000000000e+03 0.000000000000e+00
    3.400000000000e+00 0.000000000000e+00 2.793967723846e-09 3.500000000000e+01
    1.368060000000e+05 4.000000000000e+00
21 18 10  8 16  0  0.0-3.245584666729e-04 6.139089236967e-12 0.000000000000e+00
    2.000000000000e+01 6.403125000000e+01 5.403439360653e-09 1.628194325789e+00
    2.879649400711e-06 2.437558816746e-02 4.477798938751e-06 5.153606021881e+03
    1.440000000000e+05 1.974403858185e-07 1.097076178084e+00-5.960464477539e-07
    9.452065224571e-01 2.833437500000e+02-1.521625913667e+00-8.538212793692e-09
    5.060925093559e-10 1.000000000000e+00 2.022000000000e+03 0.000000000000e+00
    2.400000000000e+00 0.000000000000e+00-1.024454832077e-08 2.000000000000e+01
    1.368060000000e+05 4.000000000000e+00
26 18 10  8 16  0  0.0 3.309920430183e-06 1.136868377216e-11 0.000000000000e+00
    2.400000000000e+01-9.950000000000e+01 4.754126599884e-09 1.213879324546e+00
   -5.131587386131e-06 2.999455784447e-03 6.422400474548e-06 5.153731235504e+03
    1.440000000000e+05-1.676380634308e-08-9.648332142733e-01 2.235174179077e-08
    9.541561798176e-01 2.517500000000e+02 5.060249143117e-02-8.368205712214e-09
   -4.889489381144e-10 1.000000000000e+00 2.022000000000e+03 0.000000000000e+00
    2.400000000000e+00 0.000000000000e+00 7.450580596924e-09 2.400000000000e+01
    1.368060000000e+05 4.000000000000e+00
22 18 10  8 16  0  0.0-5.412329919636e-04-1.045918907039e-11 0.000000000000e+00
    8.000000000000e+01-8.668750000000e+01 5.621305578512e-09-1.466994060157e+00
   -4.440546035767e-06 7.032303838059e-03 6.442889571190e-06 5.153693584442e+03
    1.440000000000e+05-1.583248376846e-07 2.133784210689e+00 1.918524503708e-07
    9.257471943208e-01 2.349375000000e+02-1.473939379309e+00-8.734292389765e-09
   -5.803813180686e-10 1.000000000000e+00 2.022000000000e+03 0.000000000000e+00
    2.400000000000e+00 0.000000000000e+00-1.816079020500e-08 8.000000000000e+01
    1.368060000000e+05 4.000000000000e+00
